0 FENGYUN 1C DEB
1 36741U 99025EBP 13286.74603767  .00002484  00000-0  15915-2 0  1371
2 36741 098.4230 104.1529 0127417 054.7013 306.6761 14.00240414257545
0 FENGYUN 1C DEB
1 36741U 99025EBP 13288.74677020  .00002511  00000-0  16074-2 0  1385
2 36741 098.4255 106.0053 0127619 049.3872 311.8387 14.00250926257824
0 FENGYUN 1C DEB
1 36741U 99025EBP 13292.74821362  .00002733  00000-0  17461-2 0  1398
2 36741 098.4251 109.6932 0128011 038.6303 322.4838 14.00276697258386
